OBJECT_NAME,OBJECT_ID,EPOCH,MEAN_MOTION,ECCENTRICITY,INCLINATION,RA_OF_ASC_NODE,ARG_OF_PERICENTER,MEAN_ANOMALY,EPHEMERIS_TYPE,CLASSIFICATION_TYPE,NORAD_CAT_ID,ELEMENT_SET_NO,REV_AT_EPOCH,BSTAR,MEAN_MOTION_DOT,MEAN_MOTION_DDOT
SAUDISAT 1C (SO-50),2002-058C,2026-07-09T01:41:29.154048,14.83090961,.0074702,64.5518,61.2774,258.4036,100.8678,0,U,27607,999,26770,.80073889E-4,.528E-5,0
SAUDISAT 2,2004-025F,2026-07-08T22:34:41.953440,14.56696036,.00237461,98.5515,190.4855,228.0122,131.9053,0,U,28371,999,16891,.47011469E-4,.161E-5,0
SAUDISAT 3,2007-012B,2026-07-08T19:34:02.641440,14.71437984,.0015169,98.1465,140.2314,153.9644,206.2329,0,U,31118,999,3092,.3514396E-4,.167E-5,0
PISAT,2016-059B,2026-07-08T22:34:40.839744,14.69022214,.00301313,97.8186,189.4594,133.9612,226.4087,0,U,41784,999,52293,.11699948E-3,.644E-5,0
FLYING LAPTOP,2017-042G,2026-07-09T07:33:20.113632,15.01286913,.00198752,97.4786,345.0110,51.1476,309.1518,0,U,42831,999,48977,.17440082E-3,.2194E-4,0
SALSAT,2020-068K,2026-07-09T06:02:33.013536,15.30117525,.00085936,97.8858,194.6644,215.0810,144.9864,0,U,46495,999,31873,.19084228E-3,.5482E-4,0
